RASAT
1 37791U 11044D   18094.50361263  .00000013  00000-0  11575-4 0  9992
2 37791  98.1243 188.0008 0020551 286.0298  73.8642 14.64656628354414
